    CK18F04b  2019 12  1.3084  3.447441  0.998331  263.1863   26.5238   78.1077  20241021  11.0  6.0  C/2018 F4-B                                              MPEC 2023-D41
    PK18H020  2027 03 18.5008  2.024362  0.540174  119.3461   67.9763    7.4205  20241021  16.6  2.0  P/2018 H2 (PANSTARRS)                                    MPC114602
    CK18K03J  2019 09  9.3592  3.619184  0.995253  217.5705   91.6916  136.6264  20241021  12.2  2.0  C/2018 KJ3 (Lemmon)                                      MPEC 2021-R75
    PK18L010  2025 11  5.8858  1.896958  0.481257   17.9767  268.5866   10.5785  20241021  15.0  4.0  P/2018 L1 (PANSTARRS)                                    MPC114602
    CK18L020  2018 11 30.3306  1.720581  0.992871   56.3509  242.9826   67.1991  20241021  10.0  4.0  C/2018 L2 (ATLAS)                                        MPEC 2021-P47
    PK18L040  2029 07 29.5579  1.691039  0.658236  140.5371  145.2211   26.5942  20241021  17.5  4.0  P/2018 L4 (PANSTARRS)                                    MPC114603
    CK18N020  2019 11 11.9901  3.133545  1.001846   25.3000   24.5076   77.5290  20241021   6.0  4.0  C/2018 N2 (ASASSN)                                       MPEC 2022-YN2
    PK18P040  2018 11  8.2399  3.684527  0.449546    8.5042  353.1517   23.0893  20241021  12.0  4.0  P/2018 P4 (PANSTARRS)                                    MPC114603
    CK18P050  2019 02 26.8834  4.599820  0.642062  132.0417  216.2554    7.2460  20241021  11.0  4.0  C/2018 P5 (PANSTARRS)                                    MPEC 2021-P47
    CK18R030  2019 06  8.1112  1.282634  0.999250  112.7536  324.4387   69.6993  20241021   9.5  4.0  C/2018 R3 (Lemmon)                                       MPC118841
    CK18R050  2019 01 10.6687  3.638509  0.841660  178.2681  171.2337  103.7089  20241021  11.5  4.0  C/2018 R5 (Lemmon)                                       MPC114603
    CK18S020  2018 11  6.1819  5.485509  0.618273  290.9093   85.1097   64.1126  20241021   7.5  4.0  C/2018 S2 (TESS)                                         MPEC 2022-QC6
    CK18U010  2021 11  2.5318  4.988736  1.000671  180.4007   75.5156  108.3256  20241021   5.0  4.0  C/2018 U1 (Lemmon)                                       MPEC 2024-JU4
    CK18V010  2018 12  3.5544  0.391706  1.000437   89.4874  129.4757  144.1779  20241021  12.0  4.0  C/2018 V1 (Machholz-Fujikawa-Iwamoto)                    MPC114604
    CK18V020  2018 11 25.7444  2.492513  0.901119  319.2244  357.1680  159.1646  20241021  15.0  4.0  C/2018 V2 (ATLAS)                                        MPC115884
    PK18V02N  2026 08 15.6963  2.118736  0.478332  138.9264  226.4410   18.2596  20241021  15.0  4.0  P/2018 VN2 (Leonard)                                     MPEC 2023-CD7
    AK18V030  2019 09 10.2711  1.333419  0.989597    3.6004  308.7926  164.9262  20241021  15.7  2.0  A/2018 V3                                                MPEC 2022-VC5
    CK18V040  2019 03  2.2750  3.199691  0.984923    0.0459   78.2460   69.0434  20241021  12.5  4.0  C/2018 V4 (Africano)                                     MPEC 2022-M21
    PK18V050  2018 10  5.8472  4.703620  0.475948  260.7961  171.3098   10.5820  20241021  12.5  4.0  P/2018 V5 (Trujillo-Sheppard)                            MPEC 2021-P47
    CK18W010  2019 05 13.2547  1.353674  0.937695  251.1821  233.6549   83.4201  20241021  15.5  2.0  C/2018 W1 (Catalina)                                     MPEC 2021-P47
    CK18W020  2019 09  5.4849  1.465632  1.000886  158.2065  181.9176  116.5740  20241021   9.5  4.0  C/2018 W2 (Africano)                                     MPEC 2021-P47
    AK18W030  2021 04 13.1255  4.285560  0.993997  313.9075  251.6915  104.8401  20241021  10.7  2.0  A/2018 W3                                                MPEC 2023-M14
    CK18X020  2019 07  9.2548  2.112631  0.984878  161.9641  340.6905   23.0950  20241021  12.0  4.0  C/2018 X2 (Fitzsimmons)                                  MPC119996
    CK18X030  2019 01  1.3991  2.691858  0.782933  359.8243   78.7964   43.4263  20241021  14.5  4.0  C/2018 X3 (PANSTARRS)                                    MPC114604
    CK18Y010  2019 02  4.0262  1.289504  0.989806  357.8609  147.3786  160.4608  20241021  11.5  4.0  C/2018 Y1 (Iwamoto)                                      MPEC 2024-A43
    PK18Y020  2019 01  3.8478  3.876868  0.479972  162.3311  297.1333   11.6925  20241021  11.5  4.0  P/2018 Y2 (Africano)                                     MPC114605
    PK19A010  2030 05  6.7029  2.198082  0.570120  150.7547  312.2213   13.7662  20241021  16.0  4.0  P/2019 A1 (PANSTARRS)                                    MPC114605
    PK19A020  2018 11 23.0533  3.522888  0.383121  323.9098  139.3829   14.8693  20241021  10.5  4.0  P/2019 A2 (ATLAS)                                        MPEC 2021-P47
    PK19A030  2024 03  2.8412  2.307117  0.266837  325.6971   31.3500   15.3684  20241021  16.0  4.0  P/2019 A3 (PANSTARRS)                                    MPEC 2022-M21
    PK19A040  2023 03  4.2872  2.386151  0.087363  343.1575  119.3570   13.3047  20241021  15.0  4.0  P/2019 A4 (PANSTARRS)                                    MPEC 2022-L66
    CK19A050  2019 06  6.5798  6.310975  0.706255  355.7860  146.5416   67.5485  20241021   9.5  4.0  C/2019 A5 (PANSTARRS)                                    MPEC 2021-P47
    PK19A060  2018 09  1.2417  1.926208  0.640414  156.2276  280.1790   33.2911  20241021  16.0  4.0  P/2019 A6 (Lemmon-PANSTARRS)                             MPC114605
    PK19A080  2027 05 28.7038  3.370914  0.225370   63.2617  114.2725    2.2125  20241021  16.0  4.0  P/2019 A8 (PANSTARRS)                                    MPC115884
    CK19A090  2019 07 26.5980  1.428316  0.963589  237.8923  278.4597   84.3767  20241021  15.0  4.0  C/2019 A9 (PANSTARRS)                                    MPC118842
    CK19B010  2019 03 18.3871  1.600349  0.988455  174.7940  290.2579  123.4685  20241021  16.0  4.0  C/2019 B1 (Africano)                                     MPEC 2022-L66
    PK19B020  2027 02 24.7663  2.520224  0.357884    0.7021  175.6942   16.9615  20241021  14.5  4.0  P/2019 B2 (Groeller)                                     MPC115885
    CK19B030  2021 01 19.7843  6.828061  0.998462  263.9833  358.4116   66.5762  20241021   5.5  4.0  C/2019 B3 (PANSTARRS)                                    MPEC 2024-JU4
    CK19C010  2020 05  4.1855  6.569119  0.990082  319.0106  212.3846   36.0464  20241021  10.0  4.0  C/2019 C1 (ATLAS)                                        MPEC 2021-P47
    CK19D010  2019 05  9.5774  1.591261  0.988510   70.7365  231.6480   33.9966  20241021  13.0  4.0  C/2019 D1 (Flewelling)                                   MPEC 2022-O08
    CK19E030  2023 11 15.5063 10.313138  0.998068  280.7124  347.2117   84.3058  20241021   2.5  4.0  C/2019 E3 (ATLAS)                                        MPEC 2024-TD8
    CK19F010  2021 06 21.6516  3.608765  1.000843  251.3298   38.6637   54.2372  20241021   5.5  4.0  C/2019 F1 (ATLAS-Africano)                               MPEC 2024-GJ3
    CK19F020  2019 09  7.3996  2.242360  0.864654   11.6245  175.3710   19.3178  20241021  12.0  4.0  C/2019 F2 (ATLAS)                                        MPEC 2021-P47
    CK19G020  2019 12  7.0099  2.301467  0.994270   82.7041  208.2017  159.2365  20241021  15.0  4.0  C/2019 G2 (PANSTARRS)                                    MPEC 2024-E01
    AK19G030  2018 12  4.3236  2.838607  0.834426  161.7913   49.9114  156.8043  20241021  17.1  2.0  A/2019 G3                                                MPEC 2022-VC5
    PK19G21G  2019 05  9.6578  3.945840  0.471672  208.5901  340.5631    6.0855  20241021  12.0  4.0  P/2019 GG21 (PANSTARRS)                                  MPC114607
    CK19H010  2019 04 27.4058  1.841333  0.992143   19.2744  269.3082  104.3678  20241021  15.5  4.0  C/2019 H1 (NEOWISE)                                      MPEC 2022-M21
    CK19J010  2019 04  6.3019  2.484541  0.962911  167.6275   98.2241   24.5255  20241021  12.0  4.0  C/2019 J1 (Lemmon)                                       MPEC 2023-A50
    CK19J020  2019 07 20.8978  1.716918  0.989315   98.5965   25.5142  105.2401  20241021  13.0  4.0  C/2019 J2 (Palomar)                                      MPEC 2021-R75
    CK19J030  2019 08  2.3165  2.364102  1.000177   16.5325  270.6500  131.3009  20241021  13.5  4.0  C/2019 J3 (ATLAS)                                        MPC117071
    CK19J06U  2019 06  2.7757  2.035581  0.999999   94.8617   21.7310  148.3166  20241021  14.5  4.0  C/2019 JU6 (ATLAS)                                       MPEC 2022-M21
    CK19K010  2020 02 11.5933  2.018529  0.999459  265.7598   73.3072   87.0135  20241021  10.0  4.0  C/2019 K1 (ATLAS)                                        MPEC 2022-O08
    CK19K040  2019 06 15.2526  2.275090  0.998551  139.9935  180.2364  105.2936  20241021  12.5  4.0  C/2019 K4 (Ye)                                           MPC119997
    CK19K050  2019 06 22.0772  2.051401  0.987902  175.1532  177.2335   15.3034  20241021  13.0  4.0  C/2019 K5 (Young)                                        MPEC 2021-P47
    CK19K060  2020 05 19.1412  3.918612  0.996289  187.4775   42.9963  132.3818  20241021  11.5  4.0  C/2019 K6 (PANSTARRS)                                    MPEC 2021-P47
    CK19K070  2020 06 17.4729  4.476514  1.000734   27.3893  308.0178  103.4949  20241021   6.0  4.0  C/2019 K7 (Smith)                                        MPEC 2024-GJ3
    CK19K080  2019 07 20.8939  3.196015  0.998325   85.3631  291.0020   93.0702  20241021  11.5  4.0  C/2019 K8 (ATLAS)                                        MPEC 2021-R75
    CK19L010  2019 08  8.4398  2.904280  0.704438   50.0420  254.4270    9.9738  20241021  13.5  4.0  C/2019 L1 (PANSTARRS)                                    MPEC 2023-A50
    CK19L020  2019 04  3.1697  1.624012  0.935391   18.8637   12.5673  152.1786  20241021  16.0  4.0  C/2019 L2 (NEOWISE)                                      MPC115886
